STARLINK-4478
1 53529U 22101C   26089.98033380  .00028587  00000+0  16763-2 0  9993
2 53529  53.2172 337.9805 0003723 119.0635 241.0731 15.11569299199387
